0 CZ-4 DEB
1 34211U 99057RN  13283.13079894  .00003872  00000-0  93298-3 0  3391
2 34211 098.2633 246.8505 0086037 315.0862 100.3143 14.51575490556732
0 CZ-4 DEB
1 34211U 99057RN  13285.69494477  .00003345  00000-0  80764-3 0  3403
2 34211 098.2629 249.3726 0085795 307.1008 179.8816 14.51592621557109
0 CZ-4 DEB
1 34211U 99057RN  13289.12770981  .00005035  00000-0  12089-2 0  3415
2 34211 098.2633 252.7485 0085608 296.4363 118.8759 14.51619588557607
0 CZ-4 DEB
1 34211U 99057RN  13290.70233948  .00005624  00000-0  13385-2 0  3434
2 34211 098.2648 254.2952 0085674 291.7264 067.5314 14.51632025557833
0 CZ-4 DEB
1 34211U 99057RN  13291.12666959  .00004238  00000-0  10194-2 0  3427
2 34211 098.2644 254.7147 0085512 290.2069 125.2512 14.51635817557898
0 CZ-4 DEB
1 34211U 99057RN  13294.72370606  .00005123  00000-0  12291-2 0  3432
2 34211 098.2657 258.2531 0085342 278.9641 203.3528 14.51663262558417
